[{"OBJECT_NAME":"TEVEL2-6","OBJECT_ID":"2025-052F","EPOCH":"2026-03-09T15:35:24.554400","MEAN_MOTION":15.30760889,"ECCENTRICITY":0.0004769,"INCLINATION":97.4016,"RA_OF_ASC_NODE":325.0381,"ARG_OF_PERICENTER":95.6604,"MEAN_ANOMALY":264.5181,"EPHEMERIS_TYPE":0,"CLASSIFICATION_TYPE":"U","NORAD_CAT_ID":63215,"ELEMENT_SET_NO":999,"REV_AT_EPOCH":5486,"BSTAR":0.00070909,"MEAN_MOTION_DOT":0.00021046,"MEAN_MOTION_DDOT":0},{"OBJECT_NAME":"STARLINK-33734","OBJECT_ID":"2025-063E","EPOCH":"2026-03-09T23:35:28.039488","MEAN_MOTION":15.30217354,"ECCENTRICITY":0.00016835,"INCLINATION":53.1602,"RA_OF_ASC_NODE":61.0759,"ARG_OF_PERICENTER":77.5329,"MEAN_ANOMALY":282.586,"EPHEMERIS_TYPE":0,"CLASSIFICATION_TYPE":"U","NORAD_CAT_ID":63367,"ELEMENT_SET_NO":999,"REV_AT_EPOCH":5461,"BSTAR":0.0011497586,"MEAN_MOTION_DOT":0.00033867,"MEAN_MOTION_DDOT":0}]
